NORAD_CAT_ID,OBJECT_NAME,OBJECT_TYPE,EPOCH,MEAN_MOTION,ECCENTRICITY,INCLINATION,RA_OF_ASC_NODE,ARG_OF_PERICENTER,MEAN_ANOMALY,BSTAR,MEAN_MOTION_DOT,MEAN_MOTION_DDOT,TLE_LINE0,TLE_LINE1,TLE_LINE2,SEMIMAJOR_AXIS,PERIOD,APOGEE,PERIGEE,DECAYED
51958.0,STARLINK-3692,PAYLOAD,2023-01-13 13:24:44,15.08833028,0.0002784,53.2156,156.7526,50.9161,309.2078,0.00026122,3.871e-05,0.0,0 STARLINK-3692,1 51958U 22025C   23013.55884379  .00003871  00000-0  26122-3 0  9992,2 51958  53.2156 156.7526 0002784  50.9161 309.2078 15.08833028 48501,6917.901999999999,95.438,541.693,537.841,0.0
51958.0,STARLINK-3692,PAYLOAD,2023-01-13 18:10:53,15.08847926,0.0002703,53.2151,155.8608,51.6123,308.5111,0.00044651,6.827e-05,0.0,0 STARLINK-3692,1 51958U 22025C   23013.75755851  .00006827  00000-0  44651-3 0  9997,2 51958  53.2151 155.8608 0002703  51.6123 308.5111 15.08847926 48539,6917.856,95.437,541.591,537.851,0.0
51958.0,STARLINK-3692,PAYLOAD,2023-01-14 02:07:49,15.08838302,0.0002898999999999,53.2149,154.3741,56.3437,303.7832,0.0001691,2.404e-05,0.0,0 STARLINK-3692,1 51958U 22025C   23014.08876327  .00002404  00000-0  16910-3 0  9990,2 51958  53.2149 154.3741 0002899  56.3437 303.7832 15.08838302 48584,6917.886,95.438,541.756,537.745,0.0
51958.0,STARLINK-3692,PAYLOAD,2023-01-14 18:01:40,15.08852478,0.000274,53.2148,151.4008,58.3505,301.7754,0.00041394,6.308e-05,0.0,0 STARLINK-3692,1 51958U 22025C   23014.75115845  .00006308  00000-0  41394-3 0  9996,2 51958  53.2148 151.4008 0002740  58.3505 301.7754 15.08852478 48682,6917.842,95.437,541.6030000000001,537.812,0.0
51958.0,STARLINK-3692,PAYLOAD,2023-01-15 01:58:36,15.08839382,0.0002566999999999,53.2154,149.9132,61.1923,298.9326,8.297299999999999e-05,1.032e-05,0.0,0 STARLINK-3692,1 51958U 22025C   23015.08236194  .00001032  00000-0  82973-4 0  9992,2 51958  53.2154 149.9132 0002567  61.1923 298.9326 15.08839382 48739,6917.882,95.438,541.523,537.971,0.0
51958.0,STARLINK-3692,PAYLOAD,2023-01-15 13:06:18,15.0884039,0.000252,53.2138,147.8333,63.2828,296.8422,0.00019165,2.763e-05,0.0,0 STARLINK-3692,1 51958U 22025C   23015.54604312  .00002763  00000-0  19165-3 0  9998,2 51958  53.2138 147.8333 0002520  63.2828 296.8422 15.08840390 47719,6917.879,95.438,541.488,538.001,0.0
51958.0,STARLINK-3692,PAYLOAD,2023-01-15 17:52:26,15.08866502,0.0002126,53.2142,146.9403,64.3661,295.7551,0.0011911,0.00018733,0.0,0 STARLINK-3692,1 51958U 22025C   23015.74475561  .00018733  00000-0  11911-2 0  9996,2 51958  53.2142 146.9403 0002126  64.3661 295.7551 15.08866502 48839,6917.799,95.436,541.135,538.194,0.0
51958.0,STARLINK-3692,PAYLOAD,2023-01-16 01:49:22,15.08861819,0.000223,53.2139,145.4532,67.9886,292.1342,0.00087835,0.00013727,0.0,0 STARLINK-3692,1 51958U 22025C   23016.07595506  .00013727  00000-0  87835-3 0  9992,2 51958  53.2139 145.4532 0002230  67.9886 292.1342 15.08861819 48886,6917.814,95.436,541.221,538.136,0.0
51958.0,STARLINK-3692,PAYLOAD,2023-01-16 14:32:27,15.08861015,0.000202,53.2142,143.0745,72.1757,287.9456,0.00045989,7.043e-05,0.0,0 STARLINK-3692,1 51958U 22025C   23016.60586964  .00007043  00000-0  45989-3 0  9997,2 51958  53.2142 143.0745 0002020  72.1757 287.9456 15.08861015 48967,6917.816,95.436,541.0790000000001,538.284,0.0
51958.0,STARLINK-3692,PAYLOAD,2023-01-16 17:43:13,15.08876535,0.0002198999999999,53.2139,142.4777,75.1957,284.9278,0.00097047,0.00015206,0.0,0 STARLINK-3692,1 51958U 22025C   23016.73834502  .00015206  00000-0  97047-3 0  9997,2 51958  53.2139 142.4777 0002199  75.1957 284.9278 15.08876535 48987,6917.769,95.435,541.155,538.113,0.0
51958.0,STARLINK-3692,PAYLOAD,2023-01-17 01:40:09,15.0883934,0.0001885999999999,53.2146,140.9928,81.4898,278.6308,-0.00020906,-3.614e-05,0.0,0 STARLINK-3692,1 51958U 22025C   23017.06955038 -.00003614  00000-0 -20906-3 0  9994,2 51958  53.2146 140.9928 0001886  81.4898 278.6308 15.08839340 49036,6917.882,95.438,541.052,538.443,0.0
51958.0,STARLINK-3692,PAYLOAD,2023-01-17 14:23:15,15.08825206,0.0003863,53.2146,138.6154,92.7656,267.3778,0.0013798,0.00021733,0.0,0 STARLINK-3692,1 51958U 22025C   23017.59948854  .00021733  00000-0  13798-2 0  9990,2 51958  53.2146 138.6154 0003863  92.7656 267.3778 15.08825206 49116,6917.926,95.438,542.4630000000001,537.118,0.0
51958.0,STARLINK-3692,PAYLOAD,2023-01-17 17:34:02,15.08816245,0.0002051,53.2145,138.0189,88.6607,271.462,0.0024054,0.00038177,0.0,0 STARLINK-3692,1 51958U 22025C   23017.73197105  .00038177  00000-0  24054-2 0  9998,2 51958  53.2145 138.0189 0002051  88.6607 271.4620 15.08816245 48041,6917.953,95.439,541.237,538.399,0.0
51958.0,STARLINK-3692,PAYLOAD,2023-01-18 14:14:02,15.08880928,0.0002198999999999,53.2136,134.1529,88.9165,271.2079,0.0027851,0.00044367,0.0,0 STARLINK-3692,1 51958U 22025C   23018.59308865  .00044367  00000-0  27851-2 0  9996,2 51958  53.2136 134.1529 0002199  88.9165 271.2079 15.08880928 48170,6917.755,95.435,541.1419999999999,538.099,0.0
51958.0,STARLINK-3692,PAYLOAD,2023-01-19 07:43:17,15.08869572,0.000186,53.2129,130.8819,104.1444,255.9755,0.0020371,0.00032308,0.0,0 STARLINK-3692,1 51958U 22025C   23019.32172941  .00032308  00000-0  20371-2 0  9994,2 51958  53.2129 130.8819 0001860 104.1444 255.9755 15.08869572 49377,6917.79,95.436,540.942,538.368,0.0
51958.0,STARLINK-3692,PAYLOAD,2023-01-19 14:04:50,15.08838821,0.0001621999999999,53.2154,129.6934,101.475,258.6424,0.0017481999999999,0.00027643,0.0,0 STARLINK-3692,1 51958U 22025C   23019.58669120  .00027643  00000-0  17482-2 0  9997,2 51958  53.2154 129.6934 0001622 101.4750 258.6424 15.08838821 48325,6917.884,95.438,540.871,538.627,0.0
51958.0,STARLINK-3692,PAYLOAD,2023-01-19 17:15:36,15.088514600000002,0.0001950999999999,53.2138,129.0975,99.5682,260.553,0.0025131999999999,0.0003995,0.0,0 STARLINK-3692,1 51958U 22025C   23019.71917100  .00039950  00000-0  25132-2 0  9991,2 51958  53.2138 129.0975 0001951  99.5682 260.5530 15.08851460 49439,6917.845,95.437,541.06,538.361,0.0
51958.0,STARLINK-3692,PAYLOAD,2023-01-19 23:37:08,15.08851772,0.0001855999999999,53.2144,127.9061,92.1415,267.97900000000004,0.001135,0.00017828,0.0,0 STARLINK-3692,1 51958U 22025C   23019.98413064  .00017828  00000-0  11350-2 0  9997,2 51958  53.2144 127.9061 0001856  92.1415 267.9790 15.08851772 49475,6917.844,95.437,540.993,538.425,0.0
51958.0,STARLINK-3692,PAYLOAD,2023-01-20 10:44:51,15.08851318,0.0002109999999999,53.218,125.8305,96.5475,263.5757,0.0013707,0.00021601,0.0,0 STARLINK-3692,1 51958U 22025C   23020.44781350  .00021601  00000-0  13707-2 0  9998,2 51958  53.2180 125.8305 0002110  96.5475 263.5757 15.08851318 49540,6917.846,95.437,541.17,538.251,0.0
51958.0,STARLINK-3692,PAYLOAD,2023-01-21 05:49:28,15.08859799,0.0002106,53.2166,122.2619,96.9706,263.1526,0.0006102,9.442e-05,0.0,0 STARLINK-3692,1 51958U 22025C   23021.24268619  .00009442  00000-0  61020-3 0  9996,2 51958  53.2166 122.2619 0002106  96.9706 263.1526 15.08859799 49663,6917.82,95.436,541.1419999999999,538.2280000000001,0.0
51958.0,STARLINK-3692,PAYLOAD,2023-01-22 05:40:15,15.08843944,0.0002052,53.2162,117.8023,87.4841,272.6386,0.00046123,7.061e-05,0.0,0 STARLINK-3692,1 51958U 22025C   23022.23628889  .00007061  00000-0  46123-3 0  9997,2 51958  53.2162 117.8023 0002052  87.4841 272.6386 15.08843944 49814,6917.868,95.437,541.153,538.314,0.0
51958.0,STARLINK-3692,PAYLOAD,2023-01-22 12:01:48,15.08814146,0.0001748,53.2161,116.6113,68.6572,291.4607,-0.00022851,-3.92e-05,0.0,0 STARLINK-3692,1 51958U 22025C   23022.50125588 -.00003920  00000-0 -22851-3 0  9999,2 51958  53.2161 116.6113 0001748  68.6572 291.4607 15.08814146 49854,6917.959,95.439,541.034,538.615,0.0
51958.0,STARLINK-3692,PAYLOAD,2023-01-23 07:06:26,15.08849367,0.0001875999999999,53.2151,113.0425,66.8895,293.2295,0.0017019,0.00026909,0.0,0 STARLINK-3692,1 51958U 22025C   23023.29614463  .00026909  00000-0  17019-2 0  9990,2 51958  53.2151 113.0425 0001876  66.8895 293.2295 15.08849367 49979,6917.852,95.437,541.015,538.419,0.0
51958.0,STARLINK-3692,PAYLOAD,2023-01-24 05:21:50,15.08864314,0.0001699999999999,53.2145,108.8787,78.0928,282.0254,0.0016577,0.00026211,0.0,0 STARLINK-3692,1 51958U 22025C   23024.22350059  .00026211  00000-0  16577-2 0  9996,2 51958  53.2145 108.8787 0001700  78.0928 282.0254 15.08864314 50111,6917.806,95.436,540.847,538.495,0.0
51958.0,STARLINK-3692,PAYLOAD,2023-01-24 11:43:22,15.08859151,0.0001372,53.2153,107.6883,69.6858,290.4282,0.001235,0.00019432,0.0,0 STARLINK-3692,1 51958U 22025C   23024.48845975  .00019432  00000-0  12350-2 0  9992,2 51958  53.2153 107.6883 0001372  69.6858 290.4282 15.08859151 50158,6917.821999999999,95.436,540.636,538.738,0.0
51958.0,STARLINK-3692,PAYLOAD,2023-01-25 05:12:37,15.0884172,0.0001949,53.2159,104.4201,94.733,265.3884,0.00054318,8.368e-05,0.0,0 STARLINK-3692,1 51958U 22025C   23025.21710231  .00008368  00000-0  54318-3 0  9997,2 51958  53.2159 104.4201 0001949  94.7330 265.3884 15.08841720 50261,6917.875,95.437,541.0880000000001,538.3919999999999,0.0
51958.0,STARLINK-3692,PAYLOAD,2023-01-25 11:34:09,15.08846842,0.0001705,53.215,103.2283,92.3608,267.7579,8.238100000000001e-05,1.023e-05,0.0,0 STARLINK-3692,1 51958U 22025C   23025.48205921  .00001023  00000-0  82381-4 0  9994,2 51958  53.2150 103.2283 0001705  92.3608 267.7579 15.08846842 49211,6917.859,95.437,540.904,538.545,0.0
51958.0,STARLINK-3692,PAYLOAD,2023-01-26 11:24:56,15.08851194,0.0001576999999999,53.2155,98.7673,94.5268,265.5904,0.00023812,3.505e-05,0.0,0 STARLINK-3692,1 51958U 22025C   23026.47565517  .00003505  00000-0  23812-3 0  9994,2 51958  53.2155  98.7673 0001577  94.5268 265.5904 15.08851194 49360,6917.846,95.437,540.802,538.62,0.0
51958.0,STARLINK-3692,PAYLOAD,2023-01-27 04:54:11,15.08845476,0.0001467,53.2165,95.4966,105.0465,255.069,7.4925e-05,9.05e-06,0.0,0 STARLINK-3692,1 51958U 22025C   23027.20429504  .00000905  00000-0  74925-4 0  9994,2 51958  53.2165  95.4966 0001467 105.0465 255.0690 15.08845476 50561,6917.8640000000005,95.437,540.744,538.714,0.0
